[{"OBJECT_NAME":"STARLINK-31058","OBJECT_ID":"2023-211L","EPOCH":"2026-03-09T09:43:42.303072","MEAN_MOTION":15.27550552,"ECCENTRICITY":0.00014602,"INCLINATION":43.0017,"RA_OF_ASC_NODE":86.6677,"ARG_OF_PERICENTER":282.949,"MEAN_ANOMALY":77.1198,"EPHEMERIS_TYPE":0,"CLASSIFICATION_TYPE":"U","NORAD_CAT_ID":58677,"ELEMENT_SET_NO":999,"REV_AT_EPOCH":12242,"BSTAR":2.9351814e-5,"MEAN_MOTION_DOT":5.45e-6,"MEAN_MOTION_DDOT":0},{"OBJECT_NAME":"KUIPER-00276","OBJECT_ID":"2026-030AG","EPOCH":"2026-03-09T22:00:01.999584","MEAN_MOTION":15.30162454,"ECCENTRICITY":0.00186471,"INCLINATION":51.8824,"RA_OF_ASC_NODE":218.7283,"ARG_OF_PERICENTER":66.9346,"MEAN_ANOMALY":101.1527,"EPHEMERIS_TYPE":0,"CLASSIFICATION_TYPE":"U","NORAD_CAT_ID":67794,"ELEMENT_SET_NO":999,"REV_AT_EPOCH":482,"BSTAR":0.0021152378,"MEAN_MOTION_DOT":0.00063116,"MEAN_MOTION_DDOT":0}]
